ONEWEB-0656             
1 55817U 23029X   25365.40280396  .00000022  00000+0  21052-4 0  9992
2 55817  87.9222 307.8932 0001993  91.0084 269.1278 13.20771901139003
ONEWEB-0657             
1 55818U 23029Y   25365.44203794 -.00000259  00000+0 -67933-3 0  9995
2 55818  87.9201 338.3591 0001441 110.4454 249.6834 13.19725599136789
ONEWEB-0658             
1 55819U 23029Z   25365.43730795  .00000131  00000+0  29587-3 0  9991
2 55819  87.9222 338.3165 0001503  68.8948 291.2346 13.19726970136799
ONEWEB-0660             
1 55820U 23029AA  25365.43917380 -.00000030  00000+0 -11560-3 0  9992
2 55820  87.9013 323.1162 0001956  71.9885 288.1458 13.14501540137367
ONEWEB-0661             
1 55821U 23029AB  25365.39794686  .00000022  00000+0  23599-4 0  9995
2 55821  87.9001 323.1880 0001994  75.7454 284.3898 13.14502133137341
ONEWEB-0662             
1 55822U 23029AC  25365.43283742  .00000093  00000+0  21528-3 0  9994
2 55822  87.9006 323.1875 0001937  71.3502 288.7838 13.14502637137390
ONEWEB-0663             
1 55823U 23029AD  25365.37266531 -.00000062  00000+0 -18373-3 0  9997
2 55823  87.9237 307.9665 0001896  66.3245 293.8087 13.20855015138994
ONEWEB-0664             
1 55824U 23029AE  25365.39017703  .00000027  00000+0  35465-4 0  9996
2 55824  87.9213 307.9658 0002157  79.0443 281.0933 13.20771517138996
